[
    {
        "Altitude(m)": 565420.5354879549,
        "Argument of Periapsis(deg)": 0.0,
        "Eccentricity": 0.0,
        "Inclination(deg)": 53.0,
        "Latitude(deg)": -37.33060504469955,
        "Longitude(deg)": -79.82744758794689,
        "Mean Anomaly(deg)": -49.09089999999996,
        "RAAN(deg)": 55.00000000000001,
        "Satellite Name": "Starlink Shell 1 261",
        "Satellite Number": 261,
        "Semi-Major Axis(m)": 6931778.249405717,
        "Time(s)": 0
    },
    {
        "Altitude(m)": 565251.53496767,
        "Argument of Periapsis(deg)": 0.00034857847951123687,
        "Eccentricity": 0.0,
        "Inclination(deg)": 53.0,
        "Latitude(deg)": -36.918071787476165,
        "Longitude(deg)": -79.27918745183888,
        "Mean Anomaly(deg)": -48.46406879644326,
        "RAAN(deg)": 54.99948122992253,
        "Satellite Name": "Starlink Shell 1 261",
        "Satellite Number": 261,
        "Semi-Major Axis(m)": 6931778.249405717,
        "Time(s)": 10
    },
    {
        "Altitude(m)": 565081.6463573608,
        "Argument of Periapsis(deg)": 0.0006971569590224737,
        "Eccentricity": 0.0,
        "Inclination(deg)": 53.0,
        "Latitude(deg)": -36.502604689126755,
        "Longitude(deg)": -78.73724565224583,
        "Mean Anomaly(deg)": -47.83723759288649,
        "RAAN(deg)": 54.99896245984505,
        "Satellite Name": "Starlink Shell 1 261",
        "Satellite Number": 261,
        "Semi-Major Axis(m)": 6931778.249405717,
        "Time(s)": 20
    },
    {
        "Altitude(m)": 564910.9351176088,
        "Argument of Periapsis(deg)": 0.0010457354385337105,
        "Eccentricity": 0.0,
        "Inclination(deg)": 53.0,
        "Latitude(deg)": -36.08427679039498,
        "Longitude(deg)": -78.20150354954997,
        "Mean Anomaly(deg)": -47.21040638932984,
        "RAAN(deg)": 54.99844368976759,
        "Satellite Name": "Starlink Shell 1 261",
        "Satellite Number": 261,
        "Semi-Major Axis(m)": 6931778.249405717,
        "Time(s)": 30
    },
    {
        "Altitude(m)": 564739.4669307095,
        "Argument of Periapsis(deg)": 0.0013943139180449475,
        "Eccentricity": 0.0,
        "Inclination(deg)": 53.0,
        "Latitude(deg)": -35.66315951143628,
        "Longitude(deg)": -77.67184239052757,
        "Mean Anomaly(deg)": -46.58357518577302,
        "RAAN(deg)": 54.997924919690114,
        "Satellite Name": "Starlink Shell 1 261",
        "Satellite Number": 261,
        "Semi-Major Axis(m)": 6931778.249405717,
        "Time(s)": 40
    },
    {
        "Altitude(m)": 564567.3076714098,
        "Argument of Periapsis(deg)": 0.0017428923975561844,
        "Eccentricity": 0.0,
        "Inclination(deg)": 53.0,
        "Latitude(deg)": -35.23932268091879,
        "Longitude(deg)": -77.1481444317139,
        "Mean Anomaly(deg)": -45.95674398221636,
        "RAAN(deg)": 54.99740614961264,
        "Satellite Name": "Starlink Shell 1 261",
        "Satellite Number": 261,
        "Semi-Major Axis(m)": 6931778.249405717,
        "Time(s)": 50
    },
    {
        "Altitude(m)": 564394.5233775115,
        "Argument of Periapsis(deg)": 0.002091470877067421,
        "Eccentricity": 0.0,
        "Inclination(deg)": 53.0,
        "Latitude(deg)": -34.812834565970164,
        "Longitude(deg)": -76.63029253968261,
        "Mean Anomaly(deg)": -45.329912778659704,
        "RAAN(deg)": 54.99688737953516,
        "Satellite Name": "Starlink Shell 1 261",
        "Satellite Number": 261,
        "Semi-Major Axis(m)": 6931778.249405717,
        "Time(s)": 60
    },
    {
        "Altitude(m)": 564221.1802204262,
        "Argument of Periapsis(deg)": 0.0024400493565786582,
        "Eccentricity": 0.0,
        "Inclination(deg)": 53.0,
        "Latitude(deg)": -34.38376190282824,
        "Longitude(deg)": -76.11816978167809,
        "Mean Anomaly(deg)": -44.70308157510289,
        "RAAN(deg)": 54.9963686094577,
        "Satellite Name": "Starlink Shell 1 261",
        "Satellite Number": 261,
        "Semi-Major Axis(m)": 6931778.249405717,
        "Time(s)": 70
    },
    {
        "Altitude(m)": 564047.3444756108,
        "Argument of Periapsis(deg)": 0.002788627836089895,
        "Eccentricity": 0.0,
        "Inclination(deg)": 53.0,
        "Latitude(deg)": -33.95216992806133,
        "Longitude(deg)": -75.61166052001941,
        "Mean Anomaly(deg)": -44.07625037154623,
        "RAAN(deg)": 54.99584983938022,
        "Satellite Name": "Starlink Shell 1 261",
        "Satellite Number": 261,
        "Semi-Major Axis(m)": 6931778.249405717,
        "Time(s)": 80
    },
    {
        "Altitude(m)": 563873.0824929707,
        "Argument of Periapsis(deg)": 0.0031372063156011316,
        "Eccentricity": 0.0,
        "Inclination(deg)": 53.0,
        "Latitude(deg)": -33.51812241023461,
        "Longitude(deg)": -75.11064998505336,
        "Mean Anomaly(deg)": -43.44941916798952,
        "RAAN(deg)": 54.99533106930274,
        "Satellite Name": "Starlink Shell 1 261",
        "Satellite Number": 261,
        "Semi-Major Axis(m)": 6931778.249405717,
        "Time(s)": 90
    },
    {
        "Altitude(m)": 563698.4606672305,
        "Argument of Periapsis(deg)": 0.0034857847951123688,
        "Eccentricity": 0.0,
        "Inclination(deg)": 53.0,
        "Latitude(deg)": -33.081681681912606,
        "Longitude(deg)": -74.61502384004466,
        "Mean Anomaly(deg)": -42.82258796443281,
        "RAAN(deg)": 54.994812299225266,
        "Satellite Name": "Starlink Shell 1 261",
        "Satellite Number": 261,
        "Semi-Major Axis(m)": 6931778.249405717,
        "Time(s)": 100
    },
    {
        "Altitude(m)": 563523.5454082161,
        "Argument of Periapsis(deg)": 0.003834363274623606,
        "Eccentricity": 0.0,
        "Inclination(deg)": 53.0,
        "Latitude(deg)": -32.64290867189396,
        "Longitude(deg)": -74.12466925136911,
        "Mean Anomaly(deg)": -42.1957567608761,
        "RAAN(deg)": 54.994293529147804,
        "Satellite Name": "Starlink Shell 1 261",
        "Satellite Number": 261,
        "Semi-Major Axis(m)": 6931778.249405717,
        "Time(s)": 110
    },
    {
        "Altitude(m)": 563348.4031111783,
        "Argument of Periapsis(deg)": 0.004182941754134842,
        "Eccentricity": 0.0,
        "Inclination(deg)": 53.0,
        "Latitude(deg)": -32.20186293758558,
        "Longitude(deg)": -73.6394744387331,
        "Mean Anomaly(deg)": -41.568925557319346,
        "RAAN(deg)": 54.99377475907033,
        "Satellite Name": "Starlink Shell 1 261",
        "Satellite Number": 261,
        "Semi-Major Axis(m)": 6931778.249405717,
        "Time(s)": 120
    },
    {
        "Altitude(m)": 563173.1001270736,
        "Argument of Periapsis(deg)": 0.004531520233646079,
        "Eccentricity": 0.0,
        "Inclination(deg)": 53.0,
        "Latitude(deg)": -31.75860269743108,
        "Longitude(deg)": -73.15932821874864,
        "Mean Anomaly(deg)": -40.94209435376263,
        "RAAN(deg)": 54.99325598899285,
        "Satellite Name": "Starlink Shell 1 261",
        "Satellite Number": 261,
        "Semi-Major Axis(m)": 6931778.249405717,
        "Time(s)": 130
    },
    {
        "Altitude(m)": 562997.7027328686,
        "Argument of Periapsis(deg)": 0.0048800987131573164,
        "Eccentricity": 0.0,
        "Inclination(deg)": 53.0,
        "Latitude(deg)": -31.31318486331784,
        "Longitude(deg)": -72.68412105517167,
        "Mean Anomaly(deg)": -40.31526315020593,
        "RAAN(deg)": 54.99273721891539,
        "Satellite Name": "Starlink Shell 1 261",
        "Satellite Number": 261,
        "Semi-Major Axis(m)": 6931778.249405717,
        "Time(s)": 140
    },
    {
        "Altitude(m)": 562822.2771018597,
        "Argument of Periapsis(deg)": 0.005228677192668553,
        "Eccentricity": 0.0,
        "Inclination(deg)": 53.0,
        "Latitude(deg)": -30.86566507289239,
        "Longitude(deg)": -72.21374459046908,
        "Mean Anomaly(deg)": -39.68843194664922,
        "RAAN(deg)": 54.99221844883791,
        "Satellite Name": "Starlink Shell 1 261",
        "Satellite Number": 261,
        "Semi-Major Axis(m)": 6931778.249405717,
        "Time(s)": 150
    },
    {
        "Altitude(m)": 562646.8892740293,
        "Argument of Periapsis(deg)": 0.00557725567217979,
        "Eccentricity": 0.0,
        "Inclination(deg)": 53.0,
        "Latitude(deg)": -30.41609772172228,
        "Longitude(deg)": -71.74809117198234,
        "Mean Anomaly(deg)": -39.061600743092555,
        "RAAN(deg)": 54.99169967876043,
        "Satellite Name": "Starlink Shell 1 261",
        "Satellite Number": 261,
        "Semi-Major Axis(m)": 6931778.249405717,
        "Time(s)": 160
    },
    {
        "Altitude(m)": 562471.6051264644,
        "Argument of Periapsis(deg)": 0.0059258341516910265,
        "Eccentricity": 0.0,
        "Inclination(deg)": 53.0,
        "Latitude(deg)": -29.964535995249566,
        "Longitude(deg)": -71.28705488593845,
        "Mean Anomaly(deg)": -38.43476953953574,
        "RAAN(deg)": 54.991180908682956,
        "Satellite Name": "Starlink Shell 1 261",
        "Satellite Number": 261,
        "Semi-Major Axis(m)": 6931778.249405717,
        "Time(s)": 170
    },
    {
        "Altitude(m)": 562296.49034383,
        "Argument of Periapsis(deg)": 0.006274412631202263,
        "Eccentricity": 0.0,
        "Inclination(deg)": 53.0,
        "Latitude(deg)": -29.51103190048576,
        "Longitude(deg)": -70.83053107391405,
        "Mean Anomaly(deg)": -37.80793833597909,
        "RAAN(deg)": 54.990662138605494,
        "Satellite Name": "Starlink Shell 1 261",
        "Satellite Number": 261,
        "Semi-Major Axis(m)": 6931778.249405717,
        "Time(s)": 180
    }
]